[{"OBJECT_NAME":"COSMOS 2576","OBJECT_ID":"2024-092A","EPOCH":"2026-03-09T19:49:29.705664","MEAN_MOTION":15.27760963,"ECCENTRICITY":0.0005946,"INCLINATION":97.4253,"RA_OF_ASC_NODE":186.0053,"ARG_OF_PERICENTER":159.7731,"MEAN_ANOMALY":200.3745,"EPHEMERIS_TYPE":0,"CLASSIFICATION_TYPE":"U","NORAD_CAT_ID":59773,"ELEMENT_SET_NO":999,"REV_AT_EPOCH":10127,"BSTAR":0.00056283,"MEAN_MOTION_DOT":0.00015211,"MEAN_MOTION_DDOT":0},{"OBJECT_NAME":"STARLINK-35935","OBJECT_ID":"2025-265M","EPOCH":"2026-03-09T13:46:07.527072","MEAN_MOTION":15.27613078,"ECCENTRICITY":0.0001952,"INCLINATION":43.0066,"RA_OF_ASC_NODE":278.7646,"ARG_OF_PERICENTER":251.4524,"MEAN_ANOMALY":108.6116,"EPHEMERIS_TYPE":0,"CLASSIFICATION_TYPE":"U","NORAD_CAT_ID":66527,"ELEMENT_SET_NO":999,"REV_AT_EPOCH":1709,"BSTAR":0.0023305,"MEAN_MOTION_DOT":0.00064497,"MEAN_MOTION_DDOT":0}]
